{
  "norad_id": 32395,
  "name": "COSMOS 2436 [GLONASS-M]",
  "history": [
    {
      "epoch": "2026-03-26T07:22:42.054816Z",
      "apogee_km": 19174.261205600887,
      "perigee_km": 19085.809067899492,
      "latitude_deg": 7.603363706844111,
      "longitude_deg": -95.98665952016373,
      "height_km": 19085.843810847848,
      "semi_major_axis_km": 25508.17213675019,
      "eccentricity": 0.0017338,
      "inclination_deg": 64.326,
      "raan_deg": 194.7801,
      "arg_perigee_deg": 4.3123,
      "mean_anomaly_deg": 4.1011,
      "mean_motion_rev_day": 2.13100149
    },
    {
      "epoch": "2026-03-29T02:38:27.302208Z",
      "apogee_km": 19174.200515023942,
      "perigee_km": 19085.871833283407,
      "latitude_deg": -1.402948781081848,
      "longitude_deg": -32.12468201866795,
      "height_km": 19086.819669033972,
      "semi_major_axis_km": 25508.17317415367,
      "eccentricity": 0.00173138,
      "inclination_deg": 64.3259,
      "raan_deg": 194.6857,
      "arg_perigee_deg": 4.0415,
      "mean_anomaly_deg": 354.4199,
      "mean_motion_rev_day": 2.13100136
    },
    {
      "epoch": "2026-03-30T00:11:51.820224Z",
      "apogee_km": 19174.235784583492,
      "perigee_km": 19085.83975573498,
      "latitude_deg": -29.086189832435252,
      "longitude_deg": -11.1848304332271,
      "height_km": 19103.433450480003,
      "semi_major_axis_km": 25508.174770159236,
      "eccentricity": 0.0017327,
      "inclination_deg": 64.3257,
      "raan_deg": 194.6554,
      "arg_perigee_deg": 3.8447,
      "mean_anomaly_deg": 323.6798,
      "mean_motion_rev_day": 2.13100116
    },
    {
      "epoch": "2026-04-01T15:26:51.882720Z",
      "apogee_km": 19174.15605531903,
      "perigee_km": 19085.90799376173,
      "latitude_deg": -8.426639476366644,
      "longitude_deg": -43.0853273801608,
      "height_km": 19175.97352256322,
      "semi_major_axis_km": 25508.16902454038,
      "eccentricity": 0.0017298,
      "inclination_deg": 64.3253,
      "raan_deg": 194.5671,
      "arg_perigee_deg": 3.0557,
      "mean_anomaly_deg": 186.2553,
      "mean_motion_rev_day": 2.13100188
    },
    {
      "epoch": "2026-04-02T10:15:11.541024Z",
      "apogee_km": 19174.100314567942,
      "perigee_km": 19085.959904101688,
      "latitude_deg": 58.29849020287763,
      "longitude_deg": -99.14534785157228,
      "height_km": 19122.227888879934,
      "semi_major_axis_km": 25508.167109334812,
      "eccentricity": 0.00172769,
      "inclination_deg": 64.325,
      "raan_deg": 194.5407,
      "arg_perigee_deg": 3.0009,
      "mean_anomaly_deg": 67.4276,
      "mean_motion_rev_day": 2.13100212
    }
  ]
}